[{"OBJECT_NAME":"OBJECT L","OBJECT_ID":"2024-205L","EPOCH":"2026-03-07T03:22:40.585728","MEAN_MOTION":15.10822925,"ECCENTRICITY":0.00547724,"INCLINATION":97.4213,"RA_OF_ASC_NODE":140.2188,"ARG_OF_PERICENTER":346.2042,"MEAN_ANOMALY":13.7688,"EPHEMERIS_TYPE":0,"CLASSIFICATION_TYPE":"U","NORAD_CAT_ID":61904,"ELEMENT_SET_NO":999,"REV_AT_EPOCH":7282,"BSTAR":0.00079283043,"MEAN_MOTION_DOT":0.00013606,"MEAN_MOTION_DDOT":0},{"OBJECT_NAME":"COSMOS 252 DEB","OBJECT_ID":"1968-097P","EPOCH":"2026-03-09T22:17:10.598496","MEAN_MOTION":14.38094105,"ECCENTRICITY":0.0355903,"INCLINATION":62.2712,"RA_OF_ASC_NODE":340.7322,"ARG_OF_PERICENTER":288.5301,"MEAN_ANOMALY":67.7406,"EPHEMERIS_TYPE":0,"CLASSIFICATION_TYPE":"U","NORAD_CAT_ID":3561,"ELEMENT_SET_NO":999,"REV_AT_EPOCH":82694,"BSTAR":0.0010469467,"MEAN_MOTION_DOT":6.528e-5,"MEAN_MOTION_DDOT":0}]
